{
  "type": "FeatureCollection",
  "features": [
    {
      "type": "Feature",
      "properties": {
        "norad_id": 32376,
        "name": "COSMO-SKYMED 2",
        "group": "resource",
        "lat": -39.9515978965392,
        "lon": -3.8394788762424934,
        "alt_km": 629.7272456734818,
        "timestamp": "2025-12-27T17:24:57.050067+00:00",
        "meta_object_name": "COSMO-SKYMED 2",
        "meta_object_id": "2007-059A",
        "meta_epoch": "2025-12-27T14:48:16.889760",
        "meta_mean_motion": 14.82156389,
        "meta_eccentricity": 0.0001289,
        "meta_inclination": 97.8813,
        "meta_ra_of_asc_node": 182.7167,
        "meta_arg_of_pericenter": 83.0799,
        "meta_mean_anomaly": 277.0561,
        "meta_ephemeris_type": 0,
        "meta_classification_type": "U",
        "meta_norad_cat_id": 32376,
        "meta_element_set_no": 999,
        "meta_rev_at_epoch": 97658,
        "meta_bstar": 0.000102,
        "meta_mean_motion_dot": 7.6e-06,
        "meta_mean_motion_ddot": 0,
        "tle_line1": "1 32376U 07059A   25361.61686215  .00000760  00000+0  10200-3 0  9992",
        "tle_line2": "2 32376  97.8813 182.7167 0001289  83.0799 277.0561 14.82156389976587"
      },
      "geometry": {
        "type": "Point",
        "coordinates": [
          -3.8394788762424934,
          -39.9515978965392
        ]
      }
    },
    {
      "type": "Feature",
      "properties": {
        "norad_id": 32382,
        "name": "RADARSAT-2",
        "group": "resource",
        "lat": -58.42484118816991,
        "lon": 171.87764061754135,
        "alt_km": 799.6067989195935,
        "timestamp": "2025-12-27T17:24:57.050078+00:00",
        "meta_object_name": "RADARSAT-2",
        "meta_object_id": "2007-061A",
        "meta_epoch": "2025-12-27T07:54:11.234880",
        "meta_mean_motion": 14.29986441,
        "meta_eccentricity": 0.00011454,
        "meta_inclination": 98.5802,
        "meta_ra_of_asc_node": 5.7074,
        "meta_arg_of_pericenter": 84.8483,
        "meta_mean_anomaly": 275.283,
        "meta_ephemeris_type": 0,
        "meta_classification_type": "U",
        "meta_norad_cat_id": 32382,
        "meta_element_set_no": 999,
        "meta_rev_at_epoch": 94139,
        "meta_bstar": 0.00013971797,
        "meta_mean_motion_dot": 3.17e-06,
        "meta_mean_motion_ddot": 0,
        "tle_line1": "1 32382U 07061A   25361.32929670  .00000317  00000+0  13972-3 0  9992",
        "tle_line2": "2 32382  98.5802   5.7074 0001145  84.8483 275.2830 14.29986441941392"
      },
      "geometry": {
        "type": "Point",
        "coordinates": [
          171.87764061754135,
          -58.42484118816991
        ]
      }
    },
    {
      "type": "Feature",
      "properties": {
        "norad_id": 32783,
        "name": "CARTOSAT-2A",
        "group": "resource",
        "lat": -7.102701997206379,
        "lon": -129.8985923121984,
        "alt_km": 641.1570960757081,
        "timestamp": "2025-12-27T17:24:57.050089+00:00",
        "meta_object_name": "CARTOSAT-2A",
        "meta_object_id": "2008-021A",
        "meta_epoch": "2025-12-27T13:19:27.693696",
        "meta_mean_motion": 14.78952326,
        "meta_eccentricity": 0.0010874,
        "meta_inclination": 97.7908,
        "meta_ra_of_asc_node": 50.9138,
        "meta_arg_of_pericenter": 314.9851,
        "meta_mean_anomaly": 45.0479,
        "meta_ephemeris_type": 0,
        "meta_classification_type": "U",
        "meta_norad_cat_id": 32783,
        "meta_element_set_no": 999,
        "meta_rev_at_epoch": 95343,
        "meta_bstar": 0.00011042,
        "meta_mean_motion_dot": 7.65e-06,
        "meta_mean_motion_ddot": 0,
        "tle_line1": "1 32783U 08021A   25361.55518164  .00000765  00000+0  11042-3 0  9994",
        "tle_line2": "2 32783  97.7908  50.9138 0010874 314.9851  45.0479 14.78952326953432"
      },
      "geometry": {
        "type": "Point",
        "coordinates": [
          -129.8985923121984,
          -7.102701997206379
        ]
      }
    },
    {
      "type": "Feature",
      "properties": {
        "norad_id": 33320,
        "name": "HUANJING 1A (HJ-1A)",
        "group": "resource",
        "lat": -65.89126662819643,
        "lon": 6.891174354163283,
        "alt_km": 617.7989833025686,
        "timestamp": "2025-12-27T17:24:57.050099+00:00",
        "meta_object_name": "HUANJING 1A (HJ-1A)",
        "meta_object_id": "2008-041A",
        "meta_epoch": "2025-12-27T12:51:36.740160",
        "meta_mean_motion": 14.83442965,
        "meta_eccentricity": 0.0018968,
        "meta_inclination": 97.6556,
        "meta_ra_of_asc_node": 349.2173,
        "meta_arg_of_pericenter": 347.0455,
        "meta_mean_anomaly": 13.027,
        "meta_ephemeris_type": 0,
        "meta_classification_type": "U",
        "meta_norad_cat_id": 33320,
        "meta_element_set_no": 999,
        "meta_rev_at_epoch": 93295,
        "meta_bstar": 0.00029296,
        "meta_mean_motion_dot": 2.362e-05,
        "meta_mean_motion_ddot": 0,
        "tle_line1": "1 33320U 08041A   25361.53584190  .00002362  00000+0  29296-3 0  9999",
        "tle_line2": "2 33320  97.6556 349.2173 0018968 347.0455  13.0270 14.83442965932957"
      },
      "geometry": {
        "type": "Point",
        "coordinates": [
          6.891174354163283,
          -65.89126662819643
        ]
      }
    },
    {
      "type": "Feature",
      "properties": {
        "norad_id": 33321,
        "name": "HUANJING 1B (HJ-1B)",
        "group": "resource",
        "lat": 55.585226266114276,
        "lon": -175.64215661653765,
        "alt_km": 617.4201774994326,
        "timestamp": "2025-12-27T17:24:57.050110+00:00",
        "meta_object_name": "HUANJING 1B (HJ-1B)",
        "meta_object_id": "2008-041B",
        "meta_epoch": "2025-12-27T13:37:27.381792",
        "meta_mean_motion": 14.82861912,
        "meta_eccentricity": 0.0037632,
        "meta_inclination": 97.6414,
        "meta_ra_of_asc_node": 352.9057,
        "meta_arg_of_pericenter": 28.686,
        "meta_mean_anomaly": 331.6413,
        "meta_ephemeris_type": 0,
        "meta_classification_type": "U",
        "meta_norad_cat_id": 33321,
        "meta_element_set_no": 999,
        "meta_rev_at_epoch": 93297,
        "meta_bstar": 0.00019347,
        "meta_mean_motion_dot": 1.534e-05,
        "meta_mean_motion_ddot": 0,
        "tle_line1": "1 33321U 08041B   25361.56767803  .00001534  00000+0  19347-3 0  9993",
        "tle_line2": "2 33321  97.6414 352.9057 0037632  28.6860 331.6413 14.82861912932970"
      },
      "geometry": {
        "type": "Point",
        "coordinates": [
          -175.64215661653765,
          55.585226266114276
        ]
      }
    },
    {
      "type": "Feature",
      "properties": {
        "norad_id": 33331,
        "name": "GEOEYE 1",
        "group": "resource",
        "lat": -33.84145060317511,
        "lon": -112.67939592348957,
        "alt_km": 681.9842408037684,
        "timestamp": "2025-12-27T17:24:57.050120+00:00",
        "meta_object_name": "GEOEYE 1",
        "meta_object_id": "2008-042A",
        "meta_epoch": "2025-12-27T11:31:21.136800",
        "meta_mean_motion": 14.64720256,
        "meta_eccentricity": 0.0003115,
        "meta_inclination": 98.1235,
        "meta_ra_of_asc_node": 72.5738,
        "meta_arg_of_pericenter": 221.6064,
        "meta_mean_anomaly": 138.4902,
        "meta_ephemeris_type": 0,
        "meta_classification_type": "U",
        "meta_norad_cat_id": 33331,
        "meta_element_set_no": 999,
        "meta_rev_at_epoch": 92501,
        "meta_bstar": 0.00013581,
        "meta_mean_motion_dot": 6.76e-06,
        "meta_mean_motion_ddot": 0,
        "tle_line1": "1 33331U 08042A   25361.48010575  .00000676  00000+0  13581-3 0  9993",
        "tle_line2": "2 33331  98.1235  72.5738 0003115 221.6064 138.4902 14.64720256925017"
      },
      "geometry": {
        "type": "Point",
        "coordinates": [
          -112.67939592348957,
          -33.84145060317511
        ]
      }
    },
    {
      "type": "Feature",
      "properties": {
        "norad_id": 33396,
        "name": "THEOS",
        "group": "resource",
        "lat": -7.10501218033333,
        "lon": -121.707273811887,
        "alt_km": 828.90398160111,
        "timestamp": "2025-12-27T17:24:57.050131+00:00",
        "meta_object_name": "THEOS",
        "meta_object_id": "2008-049A",
        "meta_epoch": "2025-12-27T11:27:53.671392",
        "meta_mean_motion": 14.20100118,
        "meta_eccentricity": 0.0001213,
        "meta_inclination": 98.5843,
        "meta_ra_of_asc_node": 59.131,
        "meta_arg_of_pericenter": 91.6836,
        "meta_mean_anomaly": 268.448,
        "meta_ephemeris_type": 0,
        "meta_classification_type": "U",
        "meta_norad_cat_id": 33396,
        "meta_element_set_no": 999,
        "meta_rev_at_epoch": 89359,
        "meta_bstar": 8.9433e-05,
        "meta_mean_motion_dot": 1.48e-06,
        "meta_mean_motion_ddot": 0,
        "tle_line1": "1 33396U 08049A   25361.47770453  .00000148  00000+0  89433-4 0  9992",
        "tle_line2": "2 33396  98.5843  59.1310 0001213  91.6836 268.4480 14.20100118893596"
      },
      "geometry": {
        "type": "Point",
        "coordinates": [
          -121.707273811887,
          -7.10501218033333
        ]
      }
    }
  ]
}